start=new Date('2022-05-27T00:00:00.000Z').valueOf();
sats=[{"APOAPSIS":"548.617","ECCENTRICITY":"0.00020130","NORAD_CAT_ID":"48405","PERIAPSIS":"545.829","COUNTRY_CODE":"US","FILE":"3465646","MEAN_MOTION_DDOT":"0.0000000000000","BSTAR":"0.00008898000000","GP_ID":"204588858","SEMIMAJOR_AXIS":"6925.358","MEAN_MOTION_DOT":"0.00001044","SITE":"AFETR","OBJECT_ID":"2021-038BE","MEAN_ELEMENT_THEORY":"SGP4","TIME_SYSTEM":"UTC","ELEMENT_SET_NO":"999","PERIOD":"95.592","CENTER_NAME":"EARTH","TLE_LINE1":"1 48405U 21038BE  22146.19730692  .00001044  00000-0  88980-4 0  9993","REF_FRAME":"TEME","RCS_SIZE":"LARGE","ARG_OF_PERICENTER":"49.8541","OBJECT_TYPE":"PAYLOAD","EPHEMERIS_TYPE":"0","RA_OF_ASC_NODE":"72.3584","MEAN_ANOMALY":"310.2624","OBJECT_NAME":"STARLINK-2570","MEAN_MOTION":"15.06396916","TLE_LINE2":"2 48405  53.0546  72.3584 0002013  49.8541 310.2624 15.06396916 58784","EPOCH":"2022-05-26T04:44:07.317888","DECAY_DATE":null,"REV_AT_EPOCH":"5878","LAUNCH_DATE":"2021-05-04","CLASSIFICATION_TYPE":"U","INCLINATION":"53.0546"},{"MEAN_MOTION":"15.06396095","TLE_LINE2":"2 48406  53.0581  70.8968 0002026  38.2771 321.8361 15.06396095 58834","EPOCH":"2022-05-26T12:36:30.530304","DECAY_DATE":null,"REV_AT_EPOCH":"5883","LAUNCH_DATE":"2021-05-04","INCLINATION":"53.0581","CLASSIFICATION_TYPE":"U","PERIOD":"95.592","CENTER_NAME":"EARTH","TLE_LINE1":"1 48406U 21038BF  22146.52535336 -.00000400  00000-0 -79426-5 0  9992","RCS_SIZE":"LARGE","ARG_OF_PERICENTER":"38.2771","REF_FRAME":"TEME","OBJECT_TYPE":"PAYLOAD","EPHEMERIS_TYPE":"0","RA_OF_ASC_NODE":"70.8968","MEAN_ANOMALY":"321.8361","OBJECT_NAME":"STARLINK-2568","SEMIMAJOR_AXIS":"6925.361","GP_ID":"204626820","MEAN_MOTION_DOT":"-0.00000400","SITE":"AFETR","OBJECT_ID":"2021-038BF","MEAN_ELEMENT_THEORY":"SGP4","TIME_SYSTEM":"UTC","ELEMENT_SET_NO":"999","APOAPSIS":"548.629","ECCENTRICITY":"0.00020260","NORAD_CAT_ID":"48406","PERIAPSIS":"545.822","COUNTRY_CODE":"US","FILE":"3466271","MEAN_MOTION_DDOT":"0.0000000000000","BSTAR":"-0.00000794260000"},{"TLE_LINE2":"2 48407  53.0566  70.8885 0002045  47.4335 312.6826 15.06396096 58829","MEAN_MOTION":"15.06396096","EPOCH":"2022-05-26T12:31:12.223200","DECAY_DATE":null,"LAUNCH_DATE":"2021-05-04","REV_AT_EPOCH":"5882","CLASSIFICATION_TYPE":"U","INCLINATION":"53.0566","CENTER_NAME":"EARTH","PERIOD":"95.592","TLE_LINE1":"1 48407U 21038BG  22146.52166925 -.00000126  00000-0  10457-4 0  9999","RCS_SIZE":"LARGE","ARG_OF_PERICENTER":"47.4335","REF_FRAME":"TEME","RA_OF_ASC_NODE":"70.8885","MEAN_ANOMALY":"312.6826","OBJECT_TYPE":"PAYLOAD","EPHEMERIS_TYPE":"0","OBJECT_NAME":"STARLINK-2595","MEAN_MOTION_DOT":"-0.00000126","SITE":"AFETR","SEMIMAJOR_AXIS":"6925.361","GP_ID":"204627072","OBJECT_ID":"2021-038BG","TIME_SYSTEM":"UTC","ELEMENT_SET_NO":"999","MEAN_ELEMENT_THEORY":"SGP4","APOAPSIS":"548.642","ECCENTRICITY":"0.00020450","NORAD_CAT_ID":"48407","PERIAPSIS":"545.809","COUNTRY_CODE":"US","FILE":"3466271","MEAN_MOTION_DDOT":"0.0000000000000","BSTAR":"0.00001045700000"},{"RA_OF_ASC_NODE":"70.9201","MEAN_ANOMALY":"292.3823","OBJECT_TYPE":"PAYLOAD","EPHEMERIS_TYPE":"0","OBJECT_NAME":"STARLINK-2592","CENTER_NAME":"EARTH","PERIOD":"95.593","TLE_LINE1":"1 48408U 21038BH  22146.51798701  .00001298  00000-0  10603-3 0  9994","RCS_SIZE":"LARGE","ARG_OF_PERICENTER":"67.7336","REF_FRAME":"TEME","LAUNCH_DATE":"2021-05-04","REV_AT_EPOCH":"5882","CLASSIFICATION_TYPE":"U","INCLINATION":"53.0570","TLE_LINE2":"2 48408  53.0570  70.9201 0001601  67.7336 292.3823 15.06391162 58821","MEAN_MOTION":"15.06391162","EPOCH":"2022-05-26T12:25:54.077664","DECAY_DATE":null,"PERIAPSIS":"546.132","COUNTRY_CODE":"US","FILE":"3466271","MEAN_MOTION_DDOT":"0.0000000000000","BSTAR":"0.00010603000000","ECCENTRICITY":"0.00016010","APOAPSIS":"548.349","NORAD_CAT_ID":"48408","OBJECT_ID":"2021-038BH","TIME_SYSTEM":"UTC","ELEMENT_SET_NO":"999","MEAN_ELEMENT_THEORY":"SGP4","MEAN_MOTION_DOT":"0.00001298","SITE":"AFETR","GP_ID":"204627323","SEMIMAJOR_AXIS":"6925.376"},{"TIME_SYSTEM":"UTC","ELEMENT_SET_NO":"999","MEAN_ELEMENT_THEORY":"SGP4","OBJECT_ID":"2021-038BJ","MEAN_MOTION_DOT":"0.00000524","SITE":"AFETR","SEMIMAJOR_AXIS":"6925.352","GP_ID":"204626071","MEAN_MOTION_DDOT":"0.0000000000000","BSTAR":"0.00005408000000","PERIAPSIS":"545.845","COUNTRY_CODE":"US","FILE":"3466271","NORAD_CAT_ID":"48409","ECCENTRICITY":"0.00019820","APOAPSIS":"548.590","CLASSIFICATION_TYPE":"U","INCLINATION":"53.0579","LAUNCH_DATE":"2021-05-04","REV_AT_EPOCH":"5877","EPOCH":"2022-05-26T12:59:43.857312","DECAY_DATE":null,"TLE_LINE2":"2 48409  53.0579  75.8267 0001982  32.8439 327.2673 15.06398737 58776","MEAN_MOTION":"15.06398737","OBJECT_NAME":"STARLINK-2596","RA_OF_ASC_NODE":"75.8267","MEAN_ANOMALY":"327.2673","OBJECT_TYPE":"PAYLOAD","EPHEMERIS_TYPE":"0","TLE_LINE1":"1 48409U 21038BJ  22146.54147983  .00000524  00000-0  54080-4 0  9997","RCS_SIZE":"LARGE","ARG_OF_PERICENTER":"32.8439","REF_FRAME":"TEME","CENTER_NAME":"EARTH","PERIOD":"95.592"},{"CENTER_NAME":"EARTH","PERIOD":"95.593","TLE_LINE1":"1 48410U 21038BK  22146.94417436 -.00000244  00000-0  24959-5 0  9999","ARG_OF_PERICENTER":"56.7677","RCS_SIZE":"LARGE","REF_FRAME":"TEME","MEAN_ANOMALY":"303.3485","RA_OF_ASC_NODE":"24.0139","EPHEMERIS_TYPE":"0","OBJECT_TYPE":"PAYLOAD","OBJECT_NAME":"STARLINK-2563","TLE_LINE2":"2 48410  53.0570  24.0139 0001812  56.7677 303.3485 15.06392613 59532","MEAN_MOTION":"15.06392613","DECAY_DATE":null,"EPOCH":"2022-05-26T22:39:36.664704","LAUNCH_DATE":"2021-05-04","REV_AT_EPOCH":"5953","CLASSIFICATION_TYPE":"U","INCLINATION":"53.0570","APOAPSIS":"548.491","ECCENTRICITY":"0.00018120","NORAD_CAT_ID":"48410","FILE":"3466271","COUNTRY_CODE":"US","PERIAPSIS":"545.981","BSTAR":"0.00000249590000","MEAN_MOTION_DDOT":"0.0000000000000","SITE":"AFETR","MEAN_MOTION_DOT":"-0.00000244","GP_ID":"204626321","SEMIMAJOR_AXIS":"6925.371","OBJECT_ID":"2021-038BK","ELEMENT_SET_NO":"999","TIME_SYSTEM":"UTC","MEAN_ELEMENT_THEORY":"SGP4"},{"SITE":"AFETR","MEAN_MOTION_DOT":"0.00002454","GP_ID":"204627572","SEMIMAJOR_AXIS":"6925.349","ELEMENT_SET_NO":"999","TIME_SYSTEM":"UTC","MEAN_ELEMENT_THEORY":"SGP4","OBJECT_ID":"2021-038BL","NORAD_CAT_ID":"48411","APOAPSIS":"548.430","ECCENTRICITY":"0.00017570","BSTAR":"0.00018357000000","MEAN_MOTION_DDOT":"0.0000000000000","FILE":"3466271","COUNTRY_CODE":"US","PERIAPSIS":"545.997","DECAY_DATE":null,"EPOCH":"2022-05-26T19:53:04.915968","TLE_LINE2":"2 48411  53.0567  19.5277 0001757  66.6285 293.4889 15.06400010 59587","MEAN_MOTION":"15.06400010","CLASSIFICATION_TYPE":"U","INCLINATION":"53.0567","LAUNCH_DATE":"2021-05-04","REV_AT_EPOCH":"5958","ARG_OF_PERICENTER":"66.6285","TLE_LINE1":"1 48411U 21038BL  22146.82852912  .00002454  00000-0  18357-3 0  9996","RCS_SIZE":"LARGE","REF_FRAME":"TEME","CENTER_NAME":"EARTH","PERIOD":"95.592","OBJECT_NAME":"STARLINK-2505","MEAN_ANOMALY":"293.4889","RA_OF_ASC_NODE":"19.5277","EPHEMERIS_TYPE":"0","OBJECT_TYPE":"PAYLOAD"},{"EPHEMERIS_TYPE":"0","OBJECT_TYPE":"PAYLOAD","MEAN_ANOMALY":"140.1945","RA_OF_ASC_NODE":"19.2328","OBJECT_NAME":"STARLINK-2581","PERIOD":"95.748","CENTER_NAME":"EARTH","RCS_SIZE":"LARGE","TLE_LINE1":"1 48412U 21038BM  22146.91667824 -.00034223  00000-0 -24456-2 0  9990","ARG_OF_PERICENTER":"50.5032","REF_FRAME":"TEME","REV_AT_EPOCH":"130","LAUNCH_DATE":"2021-05-04","CLASSIFICATION_TYPE":"U","INCLINATION":"53.0554","MEAN_MOTION":"15.03952916","TLE_LINE2":"2 48412  53.0554  19.2328 0001874  50.5032 140.1945 15.03952916  1302","DECAY_DATE":null,"EPOCH":"2022-05-26T22:00:00.999936","FILE":"3466271","PERIAPSIS":"553.424","COUNTRY_CODE":"US","BSTAR":"-0.00244560000000","MEAN_MOTION_DDOT":"0.0000000000000","ECCENTRICITY":"0.00018740","APOAPSIS":"556.023","NORAD_CAT_ID":"48412","OBJECT_ID":"2021-038BM","MEAN_ELEMENT_THEORY":"SGP4","ELEMENT_SET_NO":"999","TIME_SYSTEM":"UTC","GP_ID":"204627822","SEMIMAJOR_AXIS":"6932.859","SITE":"AFETR","MEAN_MOTION_DOT":"-0.00034223"},{"TLE_LINE1":"1 48428U 21040A   22146.65575442  .00000621  00000-0  60606-4 0  9997","ARG_OF_PERICENTER":"57.4805","RCS_SIZE":"LARGE","REF_FRAME":"TEME","PERIOD":"95.593","CENTER_NAME":"EARTH","OBJECT_NAME":"STARLINK-2461","OBJECT_TYPE":"PAYLOAD","EPHEMERIS_TYPE":"0","RA_OF_ASC_NODE":"275.3103","MEAN_ANOMALY":"302.6348","EPOCH":"2022-05-26T15:44:17.181888","DECAY_DATE":null,"MEAN_MOTION":"15.06389672","TLE_LINE2":"2 48428  53.0580 275.3103 0001695  57.4805 302.6348 15.06389672 58107","INCLINATION":"53.0580","CLASSIFICATION_TYPE":"U","REV_AT_EPOCH":"5810","LAUNCH_DATE":"2021-05-09","NORAD_CAT_ID":"48428","APOAPSIS":"548.419","ECCENTRICITY":"0.00016950","MEAN_MOTION_DDOT":"0.0000000000000","BSTAR":"0.00006060600000","COUNTRY_CODE":"US","PERIAPSIS":"546.071","FILE":"3466271","GP_ID":"204627325","SEMIMAJOR_AXIS":"6925.380","MEAN_MOTION_DOT":"0.00000621","SITE":"AFETR","MEAN_ELEMENT_THEORY":"SGP4","TIME_SYSTEM":"UTC","ELEMENT_SET_NO":"999","OBJECT_ID":"2021-040A"},{"RA_OF_ASC_NODE":"244.1406","MEAN_ANOMALY":"84.3756","OBJECT_TYPE":"PAYLOAD","EPHEMERIS_TYPE":"0","OBJECT_NAME":"STARLINK-2749","CENTER_NAME":"EARTH","PERIOD":"95.591","TLE_LINE1":"1 48429U 21040B   22146.91667824 -.00085919  00000-0 -58167-2 0  9995","RCS_SIZE":"LARGE","ARG_OF_PERICENTER":"56.5371","REF_FRAME":"TEME","LAUNCH_DATE":"2021-05-09","REV_AT_EPOCH":"130","INCLINATION":"53.0536","CLASSIFICATION_TYPE":"U","TLE_LINE2":"2 48429  53.0536 244.1406 0001515  56.5371  84.3756 15.06415685  1309","MEAN_MOTION":"15.06415685","EPOCH":"2022-05-26T22:00:00.999936","DECAY_DATE":null,"PERIAPSIS":"546.116","COUNTRY_CODE":"US","FILE":"3466271","MEAN_MOTION_DDOT":"0.0000000000000","BSTAR":"-0.00581670000000","APOAPSIS":"548.215","ECCENTRICITY":"0.00015150","NORAD_CAT_ID":"48429","OBJECT_ID":"2021-040B","TIME_SYSTEM":"UTC","ELEMENT_SET_NO":"999","MEAN_ELEMENT_THEORY":"SGP4","MEAN_MOTION_DOT":"-0.00085919","SITE":"AFETR","SEMIMAJOR_AXIS":"6925.300","GP_ID":"204626073"}];
